NORAD_CAT_ID,OBJECT_NAME,OBJECT_TYPE,EPOCH,MEAN_MOTION,ECCENTRICITY,INCLINATION,RA_OF_ASC_NODE,ARG_OF_PERICENTER,MEAN_ANOMALY,BSTAR,MEAN_MOTION_DOT,MEAN_MOTION_DDOT,TLE_LINE0,TLE_LINE1,TLE_LINE2,SEMIMAJOR_AXIS,PERIOD,APOGEE,PERIGEE,DECAYED
53033.0,STARLINK-4167,PAYLOAD,2022-10-20 14:00:01,15.23692557,0.000136,53.2174,223.5792,78.6809,96.6022,-0.0477089999999999,-0.01062544,0.0,0 STARLINK-4167,1 53033U 22076AZ  22293.58334491 -.01062544  00000-0 -47709-1 0  9998,2 53033  53.2174 223.5792 0001360  78.6809  96.6022 15.23692557  1300,6872.851,94.507,495.651,493.782,0.0
53033.0,STARLINK-4167,PAYLOAD,2022-10-20 22:00:00,15.22933363,0.0001406,53.2175,222.0478,80.8832,123.3801,-0.048831,-0.01063095,0.0,0 STARLINK-4167,1 53033U 22076AZ  22293.91667824 -.01063095  00000-0 -48831-1 0  9993,2 53033  53.2175 222.0478 0001406  80.8832 123.3801 15.22933363  1303,6875.135,94.554,497.967,496.034,0.0
53033.0,STARLINK-4167,PAYLOAD,2022-10-21 06:00:00,15.22170711,0.0001376999999999,53.2173,220.5192,77.5508,154.7805,-0.0496589999999999,-0.01057373,0.0,0 STARLINK-4167,1 53033U 22076AZ  22294.25001157 -.01057373  00000-0 -49659-1 0  9993,2 53033  53.2173 220.5192 0001377  77.5508 154.7805 15.22170711 17081,6877.431,94.602,500.24300000000005,498.349,0.0
53033.0,STARLINK-4167,PAYLOAD,2022-10-21 14:00:01,15.21413684,0.0001307,53.2174,218.9891,80.893,178.5938,-0.051009,-0.01061636,0.0,0 STARLINK-4167,1 53033U 22076AZ  22294.58334491 -.01061636  00000-0 -51009-1 0  9998,2 53033  53.2174 218.9891 0001307  80.8930 178.5938 15.21413684  1305,6879.7130000000025,94.649,502.477,500.67800000000005,0.0
53033.0,STARLINK-4167,PAYLOAD,2022-10-21 22:00:00,15.20658133,0.000127,53.2169,217.4637,74.5379,211.1889,-0.052457,-0.01067202,0.0,0 STARLINK-4167,1 53033U 22076AZ  22294.91667824 -.01067202  00000-0 -52457-1 0  9997,2 53033  53.2169 217.4637 0001270  74.5379 211.1889 15.20658133 17188,6881.991,94.696,504.73,502.982,0.0
53033.0,STARLINK-4167,PAYLOAD,2022-10-22 14:00:01,15.19134278,0.0001195,53.2174,214.4151,73.1097,262.3669,-0.054463,-0.01060246,0.0,0 STARLINK-4167,1 53033U 22076AZ  22295.58334491 -.01060246  00000-0 -54463-1 0  9992,2 53033  53.2174 214.4151 0001195  73.1097 262.3669 15.19134278  1308,6886.593000000003,94.791,509.281,507.635,0.0
53033.0,STARLINK-4167,PAYLOAD,2022-10-22 22:00:00,15.18378321,0.0001229,53.2171,212.8951,72.0503,286.9286,-0.05597,-0.01078945,0.0,0 STARLINK-4167,1 53033U 22076AZ  22295.91667824 -.01078945  00000-0 -55970-1 0  9997,2 53033  53.2171 212.8951 0001229  72.0503 286.9286 15.18378321  1308,6888.878000000002,94.838,511.59,509.897,0.0
53033.0,STARLINK-4167,PAYLOAD,2022-10-23 00:00:02,15.18186368,0.0001395999999999,53.2172,212.5152,66.7557,28.021,-0.056126,-0.01076189,0.0,0 STARLINK-4167,1 53033U 22076AZ  22296.00002315 -.01076189  00000-0 -56126-1 0  9998,2 53033  53.2172 212.5152 0001396  66.7557  28.0210 15.18186368 17344,6889.459,94.85,512.286,510.362,0.0
53033.0,STARLINK-4167,PAYLOAD,2022-10-23 14:00:01,15.16855278,0.0001211999999999,53.2174,209.8569,70.6154,332.6371,-0.058135,-0.010729,0.0,0 STARLINK-4167,1 53033U 22076AZ  22296.58334491 -.01072900  00000-0 -58135-1 0  9993,2 53033  53.2174 209.8569 0001212  70.6154 332.6371 15.16855278  1303,6893.489000000001,94.933,516.189,514.518,0.0
53033.0,STARLINK-4167,PAYLOAD,2022-10-23 22:00:00,15.16106615,0.000129,53.2172,208.3429,76.8112,347.2017,-0.060327,-0.01088467,0.0,0 STARLINK-4167,1 53033U 22076AZ  22296.91667824 -.01088467  00000-0 -60327-1 0  9990,2 53033  53.2172 208.3429 0001290  76.8112 347.2017 15.16106615  1301,6895.7580000000025,94.98,518.513,516.7330000000002,0.0
53033.0,STARLINK-4167,PAYLOAD,2022-10-24 14:00:01,15.14576945,0.0001338,53.2174,205.3147,68.6884,34.1257,-0.062054,-0.0107303,0.0,0 STARLINK-4167,1 53033U 22076AZ  22297.58334491 -.01073030  00000-0 -62054-1 0  9994,2 53033  53.2174 205.3147 0001338  68.6884  34.1257 15.14576945  1308,6900.4,95.076,523.188,521.342,0.0
53033.0,STARLINK-4167,PAYLOAD,2022-10-24 22:00:00,15.13825711,0.0001396999999999,53.2173,203.806,74.947,45.8908,-0.064167,-0.01085236,0.0,0 STARLINK-4167,1 53033U 22076AZ  22297.91667824 -.01085236  00000-0 -64167-1 0  9998,2 53033  53.2173 203.8060 0001397  74.9470  45.8908 15.13825711  1309,6902.683000000001,95.123,525.512,523.5840000000002,0.0
53033.0,STARLINK-4167,PAYLOAD,2022-10-25 00:00:00,15.1362636,0.0001464,53.2174,203.4286,78.9291,136.2776,-0.0636429999999999,-0.01071413,0.0,0 STARLINK-4167,1 53033U 22076AZ  22298.00001157 -.01071413  00000-0 -63643-1 0  9990,2 53033  53.2174 203.4286 0001464  78.9291 136.2776 15.13626360 17658,6903.2890000000025,95.136,526.165,524.143,0.0
53033.0,STARLINK-4167,PAYLOAD,2022-10-25 14:00:01,15.12297215,0.0001478,53.2174,200.7893,65.3483,88.8135,-0.066069,-0.01071405,0.0,0 STARLINK-4167,1 53033U 22076AZ  22298.58334491 -.01071405  00000-0 -66069-1 0  9999,2 53033  53.2174 200.7893 0001478  65.3483  88.8135 15.12297215  1308,6907.333000000001,95.219,530.219,528.177,0.0
53033.0,STARLINK-4167,PAYLOAD,2022-10-25 22:00:01,15.11552689,0.0001425,53.2174,199.2849,77.3943,92.1134,-0.068902,-0.01092594,0.0,0 STARLINK-4167,1 53033U 22076AZ  22298.91668981 -.01092594  00000-0 -68902-1 0  9990,2 53033  53.2174 199.2849 0001425  77.3943  92.1134 15.11552689  1302,6909.601,95.266,532.451,530.482,0.0
53033.0,STARLINK-4167,PAYLOAD,2022-10-26 14:00:01,15.10009335,0.0001488,53.2174,196.2783,77.9691,119.3283,-0.068935,-0.01050421,0.0,0 STARLINK-4167,1 53033U 22076AZ  22299.58334491 -.01050421  00000-0 -68935-1 0  9999,2 53033  53.2174 196.2783 0001488  77.9691 119.3283 15.10009335  1302,6914.309,95.364,537.202,535.145,0.0
53033.0,STARLINK-4167,PAYLOAD,2022-10-26 22:00:00,15.091649300000002,0.000151,53.2176,194.7806,78.0337,131.8212,-0.028036,-0.00424662,0.0,0 STARLINK-4167,1 53033U 22076AZ  22299.91667824 -.00424662  00000-0 -28036-1 0  9994,2 53033  53.2176 194.7806 0001510  78.0337 131.8212 15.09164930 17947,6916.887,95.417,539.797,537.7080000000002,0.0
53033.0,STARLINK-4167,PAYLOAD,2022-10-27 08:00:01,15.08888331,0.000154,53.2156,192.9188,75.0047,239.5213,-0.00071121,-0.00011604,0.0,0 STARLINK-4167,1 53033U 22076AZ  22300.33334491 -.00011604  00000-0 -71121-3 0  9997,2 53033  53.2156 192.9188 0001540  75.0047 239.5213 15.08888331 18008,6917.733,95.434,540.663,538.5319999999998,0.0
53033.0,STARLINK-4167,PAYLOAD,2022-10-27 14:00:01,15.08850614,0.0001496999999999,53.2155,191.7953,81.8913,151.4278,0.0030484,0.00048576,0.0,0 STARLINK-4167,1 53033U 22076AZ  22300.58335648  .00048576  00000-0  30484-2 0  9991,2 53033  53.2155 191.7953 0001497  81.8913 151.4278 15.08850614  1303,6917.848000000001,95.437,540.749,538.677,0.0
53033.0,STARLINK-4167,PAYLOAD,2022-10-27 22:00:00,15.08901251,0.0001476,53.2154,190.3004,77.7594,167.125,-0.0062235,-0.00098152,0.0,0 STARLINK-4167,1 53033U 22076AZ  22300.91667824 -.00098152  00000-0 -62235-2 0  9998,2 53033  53.2154 190.3004 0001476  77.7594 167.1250 15.08901251  1308,6917.693,95.434,540.5790000000002,538.5369999999998,0.0
53033.0,STARLINK-4167,PAYLOAD,2022-10-28 08:00:01,15.08837663,0.0001439,53.2148,188.4294,75.2803,274.2003,-0.0060273,-0.00094944,0.0,0 STARLINK-4167,1 53033U 22076AZ  22301.33335648 -.00094944  00000-0 -60273-2 0  9996,2 53033  53.2148 188.4294 0001439  75.2803 274.2003 15.08837663 18157,6917.888000000001,95.438,540.748,538.757,0.0
53033.0,STARLINK-4167,PAYLOAD,2022-10-28 14:00:01,15.08745148,0.0001464,53.2146,187.3061,82.5802,185.5751,0.0064031,0.0010284,0.0,0 STARLINK-4167,1 53033U 22076AZ  22301.58335648  .00102840  00000-0  64031-2 0  9992,2 53033  53.2146 187.3061 0001464  82.5802 185.5751 15.08745148  1302,6918.17,95.444,541.048,539.023,0.0
53033.0,STARLINK-4167,PAYLOAD,2022-10-28 22:00:01,15.0882334,0.0001475,53.2145,185.8114,76.8922,202.7899,-0.00038436,-6.397e-05,0.0,0 STARLINK-4167,1 53033U 22076AZ  22301.91668981 -.00006397  00000-0 -38436-3 0  9991,2 53033  53.2145 185.8114 0001475  76.8922 202.7899 15.08823340  1300,6917.931,95.439,540.817,538.776,0.0
53033.0,STARLINK-4167,PAYLOAD,2022-10-29 00:00:02,15.08816357,0.0001514,53.2146,185.4376,74.9749,297.6017,0.00074363,0.00011559,0.0,0 STARLINK-4167,1 53033U 22076AZ  22302.00002315  .00011559  00000-0  74363-3 0  9998,2 53033  53.2146 185.4376 0001514  74.9749 297.6017 15.08816357 18254,6917.953,95.439,540.865,538.77,0.0
53033.0,STARLINK-4167,PAYLOAD,2022-10-29 12:00:00,15.08828658,0.0001384,53.2143,183.1913,81.5117,128.3898,0.0034394,0.00054859,0.0,0 STARLINK-4167,1 53033U 22076AZ  22302.50001157  .00054859  00000-0  34394-2 0  9995,2 53033  53.2143 183.1913 0001384  81.5117 128.3898 15.08828658  1303,6917.915,95.438,540.737,538.823,0.0
53033.0,STARLINK-4167,PAYLOAD,2022-10-29 22:00:01,15.08836474,0.0001517,53.2172,181.313,89.2757,225.1773,4.8827e-05,4.89e-06,0.0,0 STARLINK-4167,1 53033U 22076AZ  22302.91668981  .00000489  00000-0  48827-4 0  9992,2 53033  53.2172 181.3130 0001517  89.2757 225.1773 15.08836474  1302,6917.891,95.438,540.806,538.707,0.0
53033.0,STARLINK-4167,PAYLOAD,2022-10-30 14:00:01,15.08852301,0.0001395999999999,53.2144,178.3275,80.4145,257.1832,-0.00023644,-4.05e-05,0.0,0 STARLINK-4167,1 53033U 22076AZ  22303.58334491 -.00004050  00000-0 -23644-3 0  9991,2 53033  53.2144 178.3275 0001396  80.4145 257.1832 15.08852301  1304,6917.843000000003,95.437,540.674,538.742,0.0
53033.0,STARLINK-4167,PAYLOAD,2022-10-30 22:00:01,15.08843827,0.0001548,53.2146,176.8326,74.0567,275.2154,-0.00065736,-0.00010736,0.0,0 STARLINK-4167,1 53033U 22076AZ  22303.91668981 -.00010736  00000-0 -65736-3 0  9998,2 53033  53.2146 176.8326 0001548  74.0567 275.2154 15.08843827  1303,6917.869000000002,95.437,540.805,538.663,0.0
53033.0,STARLINK-4167,PAYLOAD,2022-10-31 14:00:01,15.08813521,0.0001401,53.2151,173.8381,79.3874,293.0079,0.0031256,0.00049771,0.0,0 STARLINK-4167,1 53033U 22076AZ  22304.58334491  .00049771  00000-0  31256-2 0  9996,2 53033  53.2151 173.8381 0001401  79.3874 293.0079 15.08813521  1306,6917.9609999999975,95.439,540.7959999999998,538.857,0.0
